{"type": "FeatureCollection", "features": [ {"type": "Feature", "properties": {"norad_id": 52912, "name": "GAOFEN-12 03", "group": "resource", "lat": -0.20897882433602796, "lon": -120.30227633049698, "alt_km": 632.7026288769312, "timestamp": "2025-12-18T10:51:25.447063+00:00", "meta": {"OBJECT_NAME": "GAOFEN-12 03", "OBJECT_ID": "2022-069A", "EPOCH": "2025-12-17T23:29:48.611904", "MEAN_MOTION": 14.79620595, "ECCENTRICITY": 0.0002056, "INCLINATION": 97.8486, "RA_OF_ASC_NODE": 239.2066, "ARG_OF_PERICENTER": 54.4942, "MEAN_ANOMALY": 305.6462, "EPHEMERIS_TYPE": 0, "CLASSIFICATION_TYPE": "U", "NORAD_CAT_ID": 52912, "ELEMENT_SET_NO": 999, "REV_AT_EPOCH": 18781, "BSTAR": 0.00010842815, "MEAN_MOTION_DOT": 7.62e-06, "MEAN_MOTION_DDOT": 0}, "tle": {"line1": "1 52912U 22069A   25351.97903486  .00000762  00000+0  10843-3 0  9993", "line2": "2 52912  97.8486 239.2066 0002056  54.4942 305.6462 14.79620595187811"}}, "geometry": {"type": "Point", "coordinates": [-120.30227633049698, -0.20897882433602796]}}, {"type": "Feature", "properties": {"norad_id": 54754, "name": "SWOT", "group": "resource", "lat": 32.71770953968548, "lon": 91.16085006666798, "alt_km": 890.8559893090069, "timestamp": "2025-12-18T10:51:25.447074+00:00", "meta": {"OBJECT_NAME": "SWOT", "OBJECT_ID": "2022-173A", "EPOCH": "2025-12-17T20:26:29.218848", "MEAN_MOTION": 14.00167648, "ECCENTRICITY": 3.69e-05, "INCLINATION": 77.6108, "RA_OF_ASC_NODE": 280.0891, "ARG_OF_PERICENTER": 99.5763, "MEAN_ANOMALY": 260.543, "EPHEMERIS_TYPE": 0, "CLASSIFICATION_TYPE": "U", "NORAD_CAT_ID": 54754, "ELEMENT_SET_NO": 999, "REV_AT_EPOCH": 15377, "BSTAR": 5.2734574e-05, "MEAN_MOTION_DOT": 7.5e-07, "MEAN_MOTION_DDOT": 0}, "tle": {"line1": "1 54754U 22173A   25351.85172707  .00000075  00000+0  52735-4 0  9990", "line2": "2 54754  77.6108 280.0891 0000369  99.5763 260.5430 14.00167648153771"}}, "geometry": {"type": "Point", "coordinates": [91.16085006666798, 32.71770953968548]}}, {"type": "Feature", "properties": {"norad_id": 57654, "name": "GAOFEN-12 04", "group": "resource", "lat": 8.319390222956129, "lon": 89.28812639828323, "alt_km": 632.2131155645093, "timestamp": "2025-12-18T10:51:25.447084+00:00", "meta": {"OBJECT_NAME": "GAOFEN-12 04", "OBJECT_ID": "2023-123A", "EPOCH": "2025-12-17T22:43:27.242976", "MEAN_MOTION": 14.79714966, "ECCENTRICITY": 0.00012565, "INCLINATION": 97.9125, "RA_OF_ASC_NODE": 267.625, "ARG_OF_PERICENTER": 75.2734, "MEAN_ANOMALY": 284.8617, "EPHEMERIS_TYPE": 0, "CLASSIFICATION_TYPE": "U", "NORAD_CAT_ID": 57654, "ELEMENT_SET_NO": 999, "REV_AT_EPOCH": 12582, "BSTAR": 0.00014904397, "MEAN_MOTION_DOT": 1.068e-05, "MEAN_MOTION_DDOT": 0}, "tle": {"line1": "1 57654U 23123A   25351.94684309  .00001068  00000+0  14904-3 0  9992", "line2": "2 57654  97.9125 267.6250 0001256  75.2734 284.8617 14.79714966125820"}}, "geometry": {"type": "Point", "coordinates": [89.28812639828323, 8.319390222956129]}}, {"type": "Feature", "properties": {"norad_id": 59065, "name": "PARS 1", "group": "resource", "lat": 26.933903958924503, "lon": -40.31226312736154, "alt_km": 434.5218118307557, "timestamp": "2025-12-18T10:51:25.447095+00:00", "meta": {"OBJECT_NAME": "PARS 1", "OBJECT_ID": "2024-039Q", "EPOCH": "2025-12-17T23:49:52.641696", "MEAN_MOTION": 15.41091838, "ECCENTRICITY": 0.00122303, "INCLINATION": 97.4633, "RA_OF_ASC_NODE": 323.0375, "ARG_OF_PERICENTER": 56.4341, "MEAN_ANOMALY": 303.8072, "EPHEMERIS_TYPE": 0, "CLASSIFICATION_TYPE": "U", "NORAD_CAT_ID": 59065, "ELEMENT_SET_NO": 999, "REV_AT_EPOCH": 10069, "BSTAR": 0.00024126743, "MEAN_MOTION_DOT": 9.918e-05, "MEAN_MOTION_DDOT": 0}, "tle": {"line1": "1 59065U 24039Q   25351.99297039  .00009918  00000+0  24127-3 0  9992", "line2": "2 59065  97.4633 323.0375 0012230  56.4341 303.8072 15.41091838100692"}}, "geometry": {"type": "Point", "coordinates": [-40.31226312736154, 26.933903958924503]}}, {"type": "Feature", "properties": {"norad_id": 59371, "name": "RESURS-P 4", "group": "resource", "lat": -14.122060867449422, "lon": -59.49814711780991, "alt_km": 473.93772668503607, "timestamp": "2025-12-18T10:51:25.447106+00:00", "meta": {"OBJECT_NAME": "RESURS-P 4", "OBJECT_ID": "2024-061A", "EPOCH": "2025-12-17T23:56:48.518592", "MEAN_MOTION": 15.32126606, "ECCENTRICITY": 0.00011422, "INCLINATION": 97.2549, "RA_OF_ASC_NODE": 298.2198, "ARG_OF_PERICENTER": 57.5613, "MEAN_ANOMALY": 302.5739, "EPHEMERIS_TYPE": 0, "CLASSIFICATION_TYPE": "U", "NORAD_CAT_ID": 59371, "ELEMENT_SET_NO": 999, "REV_AT_EPOCH": 9601, "BSTAR": 0.00011016282, "MEAN_MOTION_DOT": 3.341e-05, "MEAN_MOTION_DDOT": 0}, "tle": {"line1": "1 59371U 24061A   25351.99778378  .00003341  00000+0  11016-3 0  9994", "line2": "2 59371  97.2549 298.2198 0001142  57.5613 302.5739 15.32126606 96014"}}, "geometry": {"type": "Point", "coordinates": [-59.49814711780991, -14.122060867449422]}}, {"type": "Feature", "properties": {"norad_id": 59625, "name": "LEGION 1", "group": "resource", "lat": -69.38380594825533, "lon": -133.51914245419405, "alt_km": 521.7142130601806, "timestamp": "2025-12-18T10:51:25.447116+00:00", "meta": {"OBJECT_NAME": "LEGION 1", "OBJECT_ID": "2024-081A", "EPOCH": "2025-12-17T19:30:08.812800", "MEAN_MOTION": 15.16530266, "ECCENTRICITY": 0.0003705, "INCLINATION": 97.5215, "RA_OF_ASC_NODE": 66.4081, "ARG_OF_PERICENTER": 294.9071, "MEAN_ANOMALY": 65.1777, "EPHEMERIS_TYPE": 0, "CLASSIFICATION_TYPE": "U", "NORAD_CAT_ID": 59625, "ELEMENT_SET_NO": 999, "REV_AT_EPOCH": 9004, "BSTAR": 0.00021899154, "MEAN_MOTION_DOT": 4.203e-05, "MEAN_MOTION_DDOT": 0}, "tle": {"line1": "1 59625U 24081A   25351.81260200  .00004203  00000+0  21899-3 0  9997", "line2": "2 59625  97.5215  66.4081 0003705 294.9071  65.1777 15.16530266 90041"}}, "geometry": {"type": "Point", "coordinates": [-133.51914245419405, -69.38380594825533]}}, {"type": "Feature", "properties": {"norad_id": 59626, "name": "LEGION 2", "group": "resource", "lat": 69.37212050178351, "lon": 46.581091357647324, "alt_km": 513.2441496929123, "timestamp": "2025-12-18T10:51:25.447127+00:00", "meta": {"OBJECT_NAME": "LEGION 2", "OBJECT_ID": "2024-081B", "EPOCH": "2025-12-17T20:17:38.906880", "MEAN_MOTION": 15.16542235, "ECCENTRICITY": 0.00056188, "INCLINATION": 97.5217, "RA_OF_ASC_NODE": 66.5283, "ARG_OF_PERICENTER": 271.4978, "MEAN_ANOMALY": 88.5611, "EPHEMERIS_TYPE": 0, "CLASSIFICATION_TYPE": "U", "NORAD_CAT_ID": 59626, "ELEMENT_SET_NO": 999, "REV_AT_EPOCH": 9005, "BSTAR": 0.00021044269, "MEAN_MOTION_DOT": 4.038e-05, "MEAN_MOTION_DDOT": 0}, "tle": {"line1": "1 59626U 24081B   25351.84558920  .00004038  00000+0  21044-3 0  9998", "line2": "2 59626  97.5217  66.5283 0005618 271.4978  88.5611 15.16542235 90056"}}, "geometry": {"type": "Point", "coordinates": [46.581091357647324, 69.37212050178351]}}, {"type": "Feature", "properties": {"norad_id": 60182, "name": "ALOS-4 (DAICHI-4)", "group": "resource", "lat": 46.51058652635907, "lon": 78.77629939108559, "alt_km": 626.3542998293924, "timestamp": "2025-12-18T10:51:25.447137+00:00", "meta": {"OBJECT_NAME": "ALOS-4 (DAICHI-4)", "OBJECT_ID": "2024-123A", "EPOCH": "2025-12-17T21:39:33.866784", "MEAN_MOTION": 14.794683, "ECCENTRICITY": 0.00013744, "INCLINATION": 97.9228, "RA_OF_ASC_NODE": 86.6761, "ARG_OF_PERICENTER": 101.7096, "MEAN_ANOMALY": 258.4269, "EPHEMERIS_TYPE": 0, "CLASSIFICATION_TYPE": "U", "NORAD_CAT_ID": 60182, "ELEMENT_SET_NO": 999, "REV_AT_EPOCH": 7907, "BSTAR": 0.00027600201, "MEAN_MOTION_DOT": 2.01e-05, "MEAN_MOTION_DDOT": 0}, "tle": {"line1": "1 60182U 24123A   25351.90247531  .00002010  00000+0  27600-3 0  9996", "line2": "2 60182  97.9228  86.6761 0001374 101.7096 258.4269 14.79468300 79070"}}, "geometry": {"type": "Point", "coordinates": [78.77629939108559, 46.51058652635907]}}, {"type": "Feature", "properties": {"norad_id": 60452, "name": "LEGION 3", "group": "resource", "lat": 16.524397243546613, "lon": 82.23594331426538, "alt_km": 513.0682747247629, "timestamp": "2025-12-18T10:51:25.447155+00:00", "meta": {"OBJECT_NAME": "LEGION 3", "OBJECT_ID": "2024-146A", "EPOCH": "2025-12-17T19:56:05.965440", "MEAN_MOTION": 15.15815503, "ECCENTRICITY": 0.00154678, "INCLINATION": 45.0024, "RA_OF_ASC_NODE": 282.8399, "ARG_OF_PERICENTER": 226.2204, "MEAN_ANOMALY": 133.7396, "EPHEMERIS_TYPE": 0, "CLASSIFICATION_TYPE": "U", "NORAD_CAT_ID": 60452, "ELEMENT_SET_NO": 999, "REV_AT_EPOCH": 7450, "BSTAR": 0.00022026405, "MEAN_MOTION_DOT": 4.027e-05, "MEAN_MOTION_DDOT": 0}, "tle": {"line1": "1 60452U 24146A   25351.83062460  .00004027  00000+0  22026-3 0  9996", "line2": "2 60452  45.0024 282.8399 0015467 226.2204 133.7396 15.15815503 74508"}}, "geometry": {"type": "Point", "coordinates": [82.23594331426538, 16.524397243546613]}}, {"type": "Feature", "properties": {"norad_id": 60453, "name": "LEGION 4", "group": "resource", "lat": 17.74201508474656, "lon": 172.62728913092883, "alt_km": 521.9061509186822, "timestamp": "2025-12-18T10:51:25.447166+00:00", "meta": {"OBJECT_NAME": "LEGION 4", "OBJECT_ID": "2024-146B", "EPOCH": "2025-12-17T18:21:46.902816", "MEAN_MOTION": 15.15877144, "ECCENTRICITY": 0.00090244, "INCLINATION": 45.0398, "RA_OF_ASC_NODE": 14.9579, "ARG_OF_PERICENTER": 337.3399, "MEAN_ANOMALY": 22.7081, "EPHEMERIS_TYPE": 0, "CLASSIFICATION_TYPE": "U", "NORAD_CAT_ID": 60453, "ELEMENT_SET_NO": 999, "REV_AT_EPOCH": 7334, "BSTAR": 0.00020813471, "MEAN_MOTION_DOT": 3.791e-05, "MEAN_MOTION_DDOT": 0}, "tle": {"line1": "1 60453U 24146B   25351.76512619  .00003791  00000+0  20813-3 0  9994", "line2": "2 60453  45.0398  14.9579 0009024 337.3399  22.7081 15.15877144 73346"}}, "geometry": {"type": "Point", "coordinates": [172.62728913092883, 17.74201508474656]}}]}